CCSDS_OMM_VERS,COMMENT,CREATION_DATE,ORIGINATOR,OBJECT_NAME,OBJECT_ID,CENTER_NAME,REF_FRAME,TIME_SYSTEM,MEAN_ELEMENT_THEORY,EPOCH,MEAN_MOTION,ECCENTRICITY,INCLINATION,RA_OF_ASC_NODE,ARG_OF_PERICENTER,MEAN_ANOMALY,EPHEMERIS_TYPE,CLASSIFICATION_TYPE,NORAD_CAT_ID,ELEMENT_SET_NO,REV_AT_EPOCH,BSTAR,MEAN_MOTION_DOT,MEAN_MOTION_DDOT,SEMIMAJOR_AXIS,PERIOD,APOAPSIS,PERIAPSIS,OBJECT_TYPE,RCS_SIZE,COUNTRY_CODE,LAUNCH_DATE,SITE,DECAY_DATE,FILE,GP_ID,TLE_LINE0,TLE_LINE1,TLE_LINE2
2,GENERATED VIA SPACE-TRACK.ORG API,2020-08-14T04:26:27,18 SPCS,STARLINK-1098,2020-001D,EARTH,TEME,UTC,SGP4,2020-08-13T22:00:01.999584,15.05580427,0.0001517,52.9991,116.5811,105.8471,8.2272,0,U,44917,999,176,-0.0019488,-0.0002856,0,6927.861,95.644,550.777,548.675,PAYLOAD,LARGE,US,2020-01-07,AFETR,,2801525,159370592,0 STARLINK-1098,1 44917U 20001D   20226.91668981 -.00028560 +00000-0 -19488-2 0  9993,2 44917 052.9991 116.5811 0001517 105.8471 008.2272 15.05580427001767
2,GENERATED VIA SPACE-TRACK.ORG API,2020-08-14T07:26:09,18 SPCS,STARLINK-1098,2020-001D,EARTH,TEME,UTC,SGP4,2020-08-14T06:00:00.999648,15.0557258,0.0001438,52.9992,115.0851,101.1804,20.5158,0,U,44917,999,3337,-0.00015957,-2.603e-05,0,6927.885,95.644,550.746,548.754,PAYLOAD,LARGE,US,2020-01-07,AFETR,,2801695,159375765,0 STARLINK-1098,1 44917U 20001D   20227.25001157 -.00002603  00000-0 -15957-3 0  9995,2 44917  52.9992 115.0851 0001438 101.1804  20.5158 15.05572580 33370
2,GENERATED VIA SPACE-TRACK.ORG API,2020-08-14T17:19:28,18 SPCS,STARLINK-1098,2020-001D,EARTH,TEME,UTC,SGP4,2020-08-14T14:00:01.000224,15.05551598,0.0001517,52.9995,113.5871,111.0685,18.3232,0,U,44917,999,176,0.0026064,0.00037871,0,6927.95,95.646,550.865,548.764,PAYLOAD,LARGE,US,2020-01-07,AFETR,,2801898,159398967,0 STARLINK-1098,1 44917U 20001D   20227.58334491 +.00037871 +00000-0 +26064-2 0  9994,2 44917 052.9995 113.5871 0001517 111.0685 018.3232 15.05551598001765
2,GENERATED VIA SPACE-TRACK.ORG API,2020-08-15T14:46:09,18 SPCS,STARLINK-1098,2020-001D,EARTH,TEME,UTC,SGP4,2020-08-15T14:00:01.999872,15.05556461,0.0001554,53.0001,109.0982,110.9532,41.5715,0,U,44917,999,3357,0.0024189,0.00035118,0,6927.935,95.645,550.876,548.723,PAYLOAD,LARGE,US,2020-01-07,AFETR,,2802481,159413284,0 STARLINK-1098,1 44917U 20001D   20228.58335648  .00035118  00000-0  24189-2 0  9998,2 44917  53.0001 109.0982 0001554 110.9532  41.5715 15.05556461 33570
2,GENERATED VIA SPACE-TRACK.ORG API,2020-08-16T04:36:40,18 SPCS,STARLINK-1098,2020-001D,EARTH,TEME,UTC,SGP4,2020-08-15T22:00:00.999936,15.05583273,0.0001536,53.0002,107.6035,104.8076,55.3438,0,U,44917,999,176,-0.0015394,-0.00022639,0,6927.852,95.643,550.781,548.653,PAYLOAD,LARGE,US,2020-01-07,AFETR,,2802705,159477551,0 STARLINK-1098,1 44917U 20001D   20228.91667824 -.00022639 +00000-0 -15394-2 0  9993,2 44917 053.0002 107.6035 0001536 104.8076 055.3438 15.05583273001761
2,GENERATED VIA SPACE-TRACK.ORG API,2020-08-16T06:56:10,18 SPCS,STARLINK-1098,2020-001D,EARTH,TEME,UTC,SGP4,2020-08-16T06:00:02.000160,15.05587701,0.0001471,53.0001,106.107,103.0302,64.8752,0,U,44917,999,3367,-0.0013182,-0.00019437,0,6927.839,95.643,550.723,548.685,PAYLOAD,LARGE,US,2020-01-07,AFETR,,2802888,159503928,0 STARLINK-1098,1 44917U 20001D   20229.25002315 -.00019437  00000-0 -13182-2 0  9994,2 44917  53.0001 106.1070 0001471 103.0302  64.8752 15.05587701 33673
2,GENERATED VIA SPACE-TRACK.ORG API,2020-08-16T17:43:49,18 SPCS,STARLINK-1098,2020-001D,EARTH,TEME,UTC,SGP4,2020-08-16T14:00:01.000224,15.05563333,0.0001552,53.0003,104.6094,112.4192,63.1288,0,U,44917,999,181,0.0022065,0.00032001,0,6927.914,95.645,550.854,548.703,PAYLOAD,LARGE,US,2020-01-07,AFETR,,2802974,159524799,0 STARLINK-1098,1 44917U 20001D   20229.58334491 +.00032001 +00000-0 +22065-2 0  9993,2 44917 053.0003 104.6094 0001552 112.4192 063.1288 15.05563333001817
2,GENERATED VIA SPACE-TRACK.ORG API,2020-08-17T02:44:58,18 SPCS,STARLINK-1098,2020-001D,EARTH,TEME,UTC,SGP4,2020-08-16T22:00:00.999936,15.05583008,0.0001514,53.0001,103.1147,106.5953,76.646,0,U,44917,999,175,-0.0012396,-0.00018295,0,6927.853,95.644,550.767,548.669,PAYLOAD,LARGE,US,2020-01-07,AFETR,,2803232,159569413,0 STARLINK-1098,1 44917U 20001D   20229.91667824 -.00018295 +00000-0 -12396-2 0  9996,2 44917 053.0001 103.1147 0001514 106.5953 076.6460 15.05583008001750
2,GENERATED VIA SPACE-TRACK.ORG API,2020-08-17T06:46:09,18 SPCS,STARLINK-1098,2020-001D,EARTH,TEME,UTC,SGP4,2020-08-17T06:00:00.999648,15.05581312,0.000142,52.9998,101.6181,106.8938,84.0414,0,U,44917,999,3382,0.00018448,2.41e-05,0,6927.858,95.644,550.707,548.74,PAYLOAD,LARGE,US,2020-01-07,AFETR,,2803342,159593801,0 STARLINK-1098,1 44917U 20001D   20230.25001157  .00002410  00000-0  18448-3 0  9991,2 44917  52.9998 101.6181 0001420 106.8938  84.0414 15.05581312 33827
2,GENERATED VIA SPACE-TRACK.ORG API,2020-08-17T18:02:40,18 SPCS,STARLINK-1098,2020-001D,EARTH,TEME,UTC,SGP4,2020-08-17T14:00:01.000224,15.05590674,0.0001462,52.9998,100.1204,117.7197,80.9149,0,U,44917,999,176,0.0023886,0.00034704,0,6927.83,95.643,550.707,548.682,PAYLOAD,LARGE,US,2020-01-07,AFETR,,2803564,159618634,0 STARLINK-1098,1 44917U 20001D   20230.58334491 +.00034704 +00000-0 +23886-2 0  9999,2 44917 052.9998 100.1204 0001462 117.7197 080.9149 15.05590674001760
2,GENERATED VIA SPACE-TRACK.ORG API,2020-08-17T22:56:09,18 SPCS,STARLINK-1098,2020-001D,EARTH,TEME,UTC,SGP4,2020-08-17T22:00:00.999936,15.05610221,0.0001389,52.9996,98.6258,109.7323,96.6337,0,U,44917,999,3392,-0.00087286,-0.00012984,0,6927.77,95.642,550.597,548.672,PAYLOAD,LARGE,US,2020-01-07,AFETR,,2803733,159623227,0 STARLINK-1098,1 44917U 20001D   20230.91667824 -.00012984  00000-0 -87286-3 0  9998,2 44917  52.9996  98.6258 0001389 109.7323  96.6337 15.05610221 33925
2,GENERATED VIA SPACE-TRACK.ORG API,2020-08-18T20:17:42,18 SPCS,STARLINK-1098,2020-001D,EARTH,TEME,UTC,SGP4,2020-08-18T14:00:01.000224,15.05609526,0.0001516,52.9992,95.6311,117.855,103.9749,0,U,44917,999,176,-0.0019895,-0.00029171,0,6927.772,95.642,550.687,548.587,PAYLOAD,LARGE,US,2020-01-07,AFETR,,2804180,159672928,0 STARLINK-1098,1 44917U 20001D   20231.58334491 -.00029171 +00000-0 -19895-2 0  9999,2 44917 052.9992 095.6311 0001516 117.8550 103.9749 15.05609526001764
2,GENERATED VIA SPACE-TRACK.ORG API,2020-08-19T01:28:02,18 SPCS,STARLINK-1098,2020-001D,EARTH,TEME,UTC,SGP4,2020-08-18T22:00:00.999936,15.05577974,0.0001525,52.999,94.1364,108.0817,121.4752,0,U,44917,999,176,-0.00047554,-7.201e-05,0,6927.869,95.644,550.79,548.677,PAYLOAD,LARGE,US,2020-01-07,AFETR,,2804379,159697970,0 STARLINK-1098,1 44917U 20001D   20231.91667824 -.00007201 +00000-0 -47554-3 0  9999,2 44917 052.9990 094.1364 0001525 108.0817 121.4752 15.05577974001762
2,GENERATED VIA SPACE-TRACK.ORG API,2020-08-19T06:36:10,18 SPCS,STARLINK-1098,2020-001D,EARTH,TEME,UTC,SGP4,2020-08-19T06:00:00.999648,15.05595791,0.0001467,52.9988,92.6393,109.6533,127.5929,0,U,44917,999,3412,-0.0024195,-0.00035371,0,6927.814,95.643,550.695,548.663,PAYLOAD,LARGE,US,2020-01-07,AFETR,,2804539,159701867,0 STARLINK-1098,1 44917U 20001D   20232.25001157 -.00035371  00000-0 -24195-2 0  9992,2 44917  52.9988  92.6393 0001467 109.6533 127.5929 15.05595791 34127
2,GENERATED VIA SPACE-TRACK.ORG API,2020-08-19T17:47:06,18 SPCS,STARLINK-1098,2020-001D,EARTH,TEME,UTC,SGP4,2020-08-19T14:00:01.000224,15.05571598,0.0001593,52.9988,91.1416,116.3014,128.6492,0,U,44917,999,175,0.0016339,0.00023601,0,6927.888,95.644,550.857,548.65,PAYLOAD,LARGE,US,2020-01-07,AFETR,,2804760,159726786,0 STARLINK-1098,1 44917U 20001D   20232.58334491 +.00023601 +00000-0 +16339-2 0  9990,2 44917 052.9988 091.1416 0001593 116.3014 128.6492 15.05571598001755
2,GENERATED VIA SPACE-TRACK.ORG API,2020-08-20T02:56:29,18 SPCS,STARLINK-1098,2020-001D,EARTH,TEME,UTC,SGP4,2020-08-19T20:52:55.016544,15.05631192,0.0001205,53.0009,89.8531,119.3647,240.7461,0,U,44917,999,3422,0.00019582,2.579e-05,0,6927.705,95.64,550.405,548.736,PAYLOAD,LARGE,US,2020-01-07,AFETR,,2804968,159750748,0 STARLINK-1098,1 44917U 20001D   20232.87008121 +.00002579 +00000-0 +19582-3 0  9995,2 44917 053.0009 089.8531 0001205 119.3647 240.7461 15.05631192034225
2,GENERATED VIA SPACE-TRACK.ORG API,2020-08-19T22:56:09,18 SPCS,STARLINK-1098,2020-001D,EARTH,TEME,UTC,SGP4,2020-08-19T22:00:00.999936,15.05576354,0.0001559,52.9996,89.6569,109.2835,143.3652,0,U,44917,999,3422,0.00085362,0.00012178,0,6927.874,95.644,550.819,548.659,PAYLOAD,LARGE,US,2020-01-07,AFETR,,2804944,159731055,0 STARLINK-1098,1 44917U 20001D   20232.91667824  .00012178  00000-0  85362-3 0  9996,2 44917  52.9996  89.6569 0001559 109.2835 143.3652 15.05576354 34224
2,GENERATED VIA SPACE-TRACK.ORG API,2020-08-20T22:16:09,18 SPCS,STARLINK-1098,2020-001D,EARTH,TEME,UTC,SGP4,2020-08-20T20:00:01.000224,15.05592118,0.0001549,52.9989,85.5311,108.9591,74.8737,0,U,44917,999,3436,-0.0015167,-0.00022316,0,6927.825,95.643,550.763,548.617,PAYLOAD,LARGE,US,2020-01-07,AFETR,,2805390,159759721,0 STARLINK-1098,1 44917U 20001D   20233.83334491 -.00022316  00000-0 -15167-2 0  9991,2 44917  52.9989  85.5311 0001549 108.9591  74.8737 15.05592118 34363
2,GENERATED VIA SPACE-TRACK.ORG API,2020-08-21T01:54:52,18 SPCS,STARLINK-1098,2020-001D,EARTH,TEME,UTC,SGP4,2020-08-20T22:00:00.999936,15.05579212,0.0001527,52.9991,85.1571,105.9508,169.8117,0,U,44917,999,176,0.00023002,3.073e-05,0,6927.865,95.644,550.788,548.672,PAYLOAD,LARGE,US,2020-01-07,AFETR,,2805563,159782699,0 STARLINK-1098,1 44917U 20001D   20233.91667824 +.00003073 +00000-0 +23002-3 0  9994,2 44917 052.9991 085.1571 0001527 105.9508 169.8117 15.05579212001766
2,GENERATED VIA SPACE-TRACK.ORG API,2020-08-21T11:46:09,18 SPCS,STARLINK-1098,2020-001D,EARTH,TEME,UTC,SGP4,2020-08-21T10:00:00.999936,15.05566778,0.0001516,52.9993,82.9108,114.8376,352.4882,0,U,44917,999,3445,0.0023068,0.00033479,0,6927.903,95.645,550.818,548.718,PAYLOAD,LARGE,US,2020-01-07,AFETR,,2805911,159812121,0 STARLINK-1098,1 44917U 20001D   20234.41667824  .00033479  00000-0  23068-2 0  9994,2 44917  52.9993  82.9108 0001516 114.8376 352.4882 15.05566778 34453
